{
    "links": {
        "self": "http://www.neowsapp.com/rest/v1/neo/3714589?api_key=iIulBulltgU6a56xZRHN4H3l9WmuAYTsLGpBGhQ2"
    },
    "id": "3714589",
    "neo_reference_id": "3714589",
    "name": "(2015 FP124)",
    "designation": "2015 FP124",
    "nasa_jpl_url": "http://ssd.jpl.nasa.gov/sbdb.cgi?sstr=3714589",
    "absolute_magnitude_h": 22.2,
    "estimated_diameter": {
        "kilometers": {
            "estimated_diameter_min": 0.096506147,
            "estimated_diameter_max": 0.2157943048
        },
        "meters": {
            "estimated_diameter_min": 96.5061469579,
            "estimated_diameter_max": 215.7943048444
        },
        "miles": {
            "estimated_diameter_min": 0.059966121,
            "estimated_diameter_max": 0.134088323
        },
        "feet": {
            "estimated_diameter_min": 316.6212271853,
            "estimated_diameter_max": 707.9865871058
        }
    },
    "is_potentially_hazardous_asteroid": false,
    "close_approach_data": [
        {
            "close_approach_date": "2015-04-01",
            "close_approach_date_full": "2015-Apr-01 08:07",
            "epoch_date_close_approach": 1427875620000,
            "relative_velocity": {
                "kilometers_per_second": "17.048378235",
                "kilometers_per_hour": "61374.16164587",
                "miles_per_hour": "38135.5172737907"
            },
            "miss_distance": {
                "astronomical": "0.074385896",
                "lunar": "28.936113544",
                "kilometers": "11127971.59964152",
                "miles": "6914600.917712176"
            },
            "orbiting_body": "Earth"
        }
    ],
    "orbital_data": {
        "orbit_id": "9",
        "orbit_determination_date": "2017-04-06 08:34:40",
        "first_observation_date": "2015-03-27",
        "last_observation_date": "2015-04-11",
        "data_arc_in_days": 15,
        "observations_used": 103,
        "orbit_uncertainty": "8",
        "minimum_orbit_intersection": ".0678957",
        "jupiter_tisserand_invariant": "3.972",
        "epoch_osculation": "2457114.5",
        "eccentricity": ".4130352799754369",
        "semi_major_axis": "1.708546758344721",
        "inclination": "27.37864043379605",
        "ascending_node_longitude": "9.409673792724748",
        "orbital_period": "815.7155287385326",
        "perihelion_distance": "1.002856669660684",
        "perihelion_argument": "219.1590166570161",
        "aphelion_distance": "2.414236847028758",
        "perihelion_time": "2457145.401471986934",
        "mean_anomaly": "346.3622433025153",
        "mean_motion": ".4413303257285341",
        "equinox": "J2000",
        "orbit_class": {
            "orbit_class_type": "APO",
            "orbit_class_description": "Near-Earth asteroid orbits which cross the Earth’s orbit similar to that of 1862 Apollo",
            "orbit_class_range": "a (semi-major axis) > 1.0 AU; q (perihelion) < 1.017 AU"
        }
    },
    "is_sentry_object": false
}